EUTELSAT QUANTUM        
1 49056U 21069B   25253.09869465  .00000124  00000+0  00000+0 0  9991
2 49056   0.0454 323.5469 0002286 233.5207 235.5514  1.00270472 15117
EUTELSAT KONNECT VHTS   
1 53765U 22110A   25253.16115037  .00000014  00000+0  00000+0 0  9996
2 53765   0.0539 104.6409 0002662  53.3061 252.1951  1.00269193  4014
EUTELSAT HOTBIRD 13F    
1 54048U 22134A   25253.16314370  .00000085  00000+0  00000+0 0  9996
2 54048   0.0608 289.7442 0001971  70.1283  61.3090  1.00270226 10563
EUTELSAT HOTBIRD 13G    
1 54225U 22146A   25252.80636317  .00000085  00000+0  00000+0 0  9994
2 54225   0.0509 231.4578 0002132 307.4326 113.4954  1.00272063  4650
EUTELSAT 10B            
1 54259U 22157A   25253.16253704  .00000066  00000+0  00000+0 0  9997
2 54259   0.0555 103.0940 0001836   0.8339 314.0320  1.00268034 10200
EUTELSAT 36D            
1 59346U 24059A   25253.16773706  .00000154  00000+0  00000+0 0  9999
2 59346   0.0150 152.6450 0000284  55.0839 237.9653  1.00270961  5334
